0 DELTA 1 DEB
1 12255U 78026CY  13280.66370481 -.00000060  00000-0 -11829-4 0  2320
2 12255 098.8451 341.4255 0025573 347.2630 166.3122 13.99950540980657
0 DELTA 1 DEB
1 12255U 78026CY  13283.14575773 -.00000027  00000-0  10433-4 0  2330
2 12255 098.8451 343.8254 0025427 340.1954 075.5962 13.99951051981002
0 DELTA 1 DEB
1 12255U 78026CY  13286.14760711  .00000010  00000-0  35556-4 0  2346
2 12255 098.8428 346.7268 0025225 331.5647 084.6873 13.99951077981428
0 DELTA 1 DEB
1 12255U 78026CY  13289.14926198  .00000069  00000-0  75741-4 0  2357
2 12255 098.8416 349.6283 0025100 322.9501 092.7836 13.99952012981844
0 DELTA 1 DEB
1 12255U 78026CY  13292.67069075  .00000085  00000-0  86844-4 0  2366
2 12255 098.8407 353.0322 0024997 312.6941 200.6559 13.99952390982330
